{
  "norad_id": 58161,
  "name": "STARLINK-30773",
  "history": [
    {
      "epoch": "2026-03-28T20:27:48.780288Z",
      "apogee_km": 476.14422217822994,
      "perigee_km": 474.31245469057194,
      "latitude_deg": 2.8186009669212263e-05,
      "longitude_deg": -2.6655742468021044,
      "height_km": 476.0131709019021,
      "semi_major_axis_km": 6853.365338434401,
      "eccentricity": 0.00013364,
      "inclination_deg": 53.1595,
      "raan_deg": 130.5548,
      "arg_perigee_deg": 82.9061,
      "mean_anomaly_deg": 277.2092,
      "mean_motion_rev_day": 15.30195556
    },
    {
      "epoch": "2026-03-29T02:44:01.789440Z",
      "apogee_km": 476.27818473392927,
      "perigee_km": 474.202982001686,
      "latitude_deg": -1.6606731682228003e-05,
      "longitude_deg": -98.19152368163454,
      "height_km": 476.14658934351814,
      "semi_major_axis_km": 6853.377583367807,
      "eccentricity": 0.0001514,
      "inclination_deg": 53.1601,
      "raan_deg": 129.3406,
      "arg_perigee_deg": 90.4561,
      "mean_anomaly_deg": 269.6613,
      "mean_motion_rev_day": 15.30191455
    },
    {
      "epoch": "2026-03-30T02:14:49.597440Z",
      "apogee_km": 476.2714476164101,
      "perigee_km": 474.1935059910429,
      "latitude_deg": 2.9555288198550613e-05,
      "longitude_deg": -96.4080448276765,
      "height_km": 476.28171593841313,
      "semi_major_axis_km": 6853.369476803727,
      "eccentricity": 0.0001516,
      "inclination_deg": 53.1607,
      "raan_deg": 124.7889,
      "arg_perigee_deg": 98.38,
      "mean_anomaly_deg": 261.7373,
      "mean_motion_rev_day": 15.3019417
    }
  ]
}